{"type": "FeatureCollection", "features": [ {"type": "Feature", "properties": {"norad_id": 30960, "name": "FENGYUN 1C DEB", "group": "fengyun-1c-debris", "lat": -26.328439566374747, "lon": -65.78105856494751, "alt_km": 671.9892638997635, "timestamp": "2025-12-27T07:26:25.501553+00:00", "meta": {"OBJECT_NAME": "FENGYUN 1C DEB", "OBJECT_ID": "1999-025BBA", "EPOCH": "2025-12-26T14:09:10.874016", "MEAN_MOTION": 14.67134239, "ECCENTRICITY": 0.0195894, "INCLINATION": 99.0007, "RA_OF_ASC_NODE": 117.9267, "ARG_OF_PERICENTER": 119.2795, "MEAN_ANOMALY": 242.8143, "EPHEMERIS_TYPE": 0, "CLASSIFICATION_TYPE": "U", "NORAD_CAT_ID": 30960, "ELEMENT_SET_NO": 999, "REV_AT_EPOCH": 98901, "BSTAR": 0.0010081, "MEAN_MOTION_DOT": 7.504e-05, "MEAN_MOTION_DDOT": 0}, "tle": {"line1": "1 30960U 99025BBA 25360.58970919  .00007504  00000+0  10081-2 0  9994", "line2": "2 30960  99.0007 117.9267 0195894 119.2795 242.8143 14.67134239989019"}}, "geometry": {"type": "Point", "coordinates": [-65.78105856494751, -26.328439566374747]}}, {"type": "Feature", "properties": {"norad_id": 30967, "name": "FENGYUN 1C DEB", "group": "fengyun-1c-debris", "lat": -78.38067383373519, "lon": -3.0786924259922794, "alt_km": 700.5253498501979, "timestamp": "2025-12-27T07:26:25.501563+00:00", "meta": {"OBJECT_NAME": "FENGYUN 1C DEB", "OBJECT_ID": "1999-025BBH", "EPOCH": "2025-12-25T19:34:00.727680", "MEAN_MOTION": 14.57223701, "ECCENTRICITY": 0.00950963, "INCLINATION": 98.7669, "RA_OF_ASC_NODE": 306.7152, "ARG_OF_PERICENTER": 199.2941, "MEAN_ANOMALY": 160.4646, "EPHEMERIS_TYPE": 0, "CLASSIFICATION_TYPE": "U", "NORAD_CAT_ID": 30967, "ELEMENT_SET_NO": 999, "REV_AT_EPOCH": 99204, "BSTAR": 0.00068094383, "MEAN_MOTION_DOT": 3.217e-05, "MEAN_MOTION_DDOT": 0}, "tle": {"line1": "1 30967U 99025BBH 25359.81528620  .00003217  00000+0  68094-3 0  9998", "line2": "2 30967  98.7669 306.7152 0095096 199.2941 160.4646 14.57223701992043"}}, "geometry": {"type": "Point", "coordinates": [-3.0786924259922794, -78.38067383373519]}}, {"type": "Feature", "properties": {"norad_id": 30971, "name": "FENGYUN 1C DEB", "group": "fengyun-1c-debris", "lat": 14.018931933802618, "lon": -130.60728818572915, "alt_km": 547.1350859001477, "timestamp": "2025-12-27T07:26:25.501573+00:00", "meta": {"OBJECT_NAME": "FENGYUN 1C DEB", "OBJECT_ID": "1999-025BBM", "EPOCH": "2025-12-26T09:33:58.447296", "MEAN_MOTION": 14.71817648, "ECCENTRICITY": 0.0164096, "INCLINATION": 99.2079, "RA_OF_ASC_NODE": 46.0406, "ARG_OF_PERICENTER": 149.0944, "MEAN_ANOMALY": 229.5467, "EPHEMERIS_TYPE": 0, "CLASSIFICATION_TYPE": "U", "NORAD_CAT_ID": 30971, "ELEMENT_SET_NO": 999, "REV_AT_EPOCH": 99918, "BSTAR": 0.00054953, "MEAN_MOTION_DOT": 4.174e-05, "MEAN_MOTION_DDOT": 0}, "tle": {"line1": "1 30971U 99025BBM 25360.39859314  .00004174  00000+0  54953-3 0  9997", "line2": "2 30971  99.2079  46.0406 0164096 149.0944 229.5467 14.71817648999183"}}, "geometry": {"type": "Point", "coordinates": [-130.60728818572915, 14.018931933802618]}}, {"type": "Feature", "properties": {"norad_id": 30979, "name": "FENGYUN 1C DEB", "group": "fengyun-1c-debris", "lat": -52.14742101362304, "lon": 69.18393131330593, "alt_km": 534.9577392798546, "timestamp": "2025-12-27T07:26:25.501583+00:00", "meta": {"OBJECT_NAME": "FENGYUN 1C DEB", "OBJECT_ID": "1999-025BBV", "EPOCH": "2025-12-26T11:43:30.103104", "MEAN_MOTION": 14.79005475, "ECCENTRICITY": 0.0190335, "INCLINATION": 97.8297, "RA_OF_ASC_NODE": 258.5824, "ARG_OF_PERICENTER": 196.2555, "MEAN_ANOMALY": 343.9227, "EPHEMERIS_TYPE": 0, "CLASSIFICATION_TYPE": "U", "NORAD_CAT_ID": 30979, "ELEMENT_SET_NO": 999, "REV_AT_EPOCH": 99348, "BSTAR": 0.00080785, "MEAN_MOTION_DOT": 8.057e-05, "MEAN_MOTION_DDOT": 0}, "tle": {"line1": "1 30979U 99025BBV 25360.48854286  .00008057  00000+0  80785-3 0  9994", "line2": "2 30979  97.8297 258.5824 0190335 196.2555 343.9227 14.79005475993485"}}, "geometry": {"type": "Point", "coordinates": [69.18393131330593, -52.14742101362304]}}, {"type": "Feature", "properties": {"norad_id": 30982, "name": "FENGYUN 1C DEB", "group": "fengyun-1c-debris", "lat": 64.80986876495086, "lon": -26.677216745547256, "alt_km": 834.7244250122812, "timestamp": "2025-12-27T07:26:25.501594+00:00", "meta": {"OBJECT_NAME": "FENGYUN 1C DEB", "OBJECT_ID": "1999-025BBY", "EPOCH": "2025-12-26T06:21:46.661760", "MEAN_MOTION": 14.5099281, "ECCENTRICITY": 0.01799, "INCLINATION": 98.2179, "RA_OF_ASC_NODE": 350.195, "ARG_OF_PERICENTER": 270.7358, "MEAN_ANOMALY": 99.7782, "EPHEMERIS_TYPE": 0, "CLASSIFICATION_TYPE": "U", "NORAD_CAT_ID": 30982, "ELEMENT_SET_NO": 999, "REV_AT_EPOCH": 71250, "BSTAR": 0.00030803, "MEAN_MOTION_DOT": 1.447e-05, "MEAN_MOTION_DDOT": 0}, "tle": {"line1": "1 30982U 99025BBY 25360.26512340  .00001447  00000+0  30803-3 0  9998", "line2": "2 30982  98.2179 350.1950 0179900 270.7358  99.7782 14.50992810712507"}}, "geometry": {"type": "Point", "coordinates": [-26.677216745547256, 64.80986876495086]}}, {"type": "Feature", "properties": {"norad_id": 30984, "name": "FENGYUN 1C DEB", "group": "fengyun-1c-debris", "lat": -79.8783787672127, "lon": 91.86430027918324, "alt_km": 669.800546246247, "timestamp": "2025-12-27T07:26:25.501604+00:00", "meta": {"OBJECT_NAME": "FENGYUN 1C DEB", "OBJECT_ID": "1999-025BCA", "EPOCH": "2025-12-26T20:13:49.097568", "MEAN_MOTION": 14.5052169, "ECCENTRICITY": 0.01265013, "INCLINATION": 98.2621, "RA_OF_ASC_NODE": 36.9219, "ARG_OF_PERICENTER": 324.67, "MEAN_ANOMALY": 34.6159, "EPHEMERIS_TYPE": 0, "CLASSIFICATION_TYPE": "U", "NORAD_CAT_ID": 30984, "ELEMENT_SET_NO": 999, "REV_AT_EPOCH": 95368, "BSTAR": 0.00080931026, "MEAN_MOTION_DOT": 3.463e-05, "MEAN_MOTION_DDOT": 0}, "tle": {"line1": "1 30984U 99025BCA 25360.84292937  .00003463  00000+0  80931-3 0  9998", "line2": "2 30984  98.2621  36.9219 0126501 324.6700  34.6159 14.50521690953683"}}, "geometry": {"type": "Point", "coordinates": [91.86430027918324, -79.8783787672127]}}, {"type": "Feature", "properties": {"norad_id": 30988, "name": "FENGYUN 1C DEB", "group": "fengyun-1c-debris", "lat": -67.07058644214933, "lon": -28.414352276918354, "alt_km": 415.0542777434639, "timestamp": "2025-12-27T07:26:25.501613+00:00", "meta": {"OBJECT_NAME": "FENGYUN 1C DEB", "OBJECT_ID": "1999-025BCE", "EPOCH": "2025-12-24T07:25:39.389952", "MEAN_MOTION": 15.27554396, "ECCENTRICITY": 0.01086712, "INCLINATION": 98.5426, "RA_OF_ASC_NODE": 307.3357, "ARG_OF_PERICENTER": 299.8521, "MEAN_ANOMALY": 59.1949, "EPHEMERIS_TYPE": 0, "CLASSIFICATION_TYPE": "U", "NORAD_CAT_ID": 30988, "ELEMENT_SET_NO": 999, "REV_AT_EPOCH": 99740, "BSTAR": 0.0020069634, "MEAN_MOTION_DOT": 0.00064814, "MEAN_MOTION_DDOT": 0}, "tle": {"line1": "1 30988U 99025BCE 25358.30948368  .00064814  00000+0  20070-2 0  9990", "line2": "2 30988  98.5426 307.3357 0108671 299.8521  59.1949 15.27554396997404"}}, "geometry": {"type": "Point", "coordinates": [-28.414352276918354, -67.07058644214933]}}, {"type": "Feature", "properties": {"norad_id": 30989, "name": "FENGYUN 1C DEB", "group": "fengyun-1c-debris", "lat": -79.6912642739136, "lon": -166.152539434975, "alt_km": 910.8689017937077, "timestamp": "2025-12-27T07:26:25.501623+00:00", "meta": {"OBJECT_NAME": "FENGYUN 1C DEB", "OBJECT_ID": "1999-025BCF", "EPOCH": "2025-12-26T21:42:05.230080", "MEAN_MOTION": 14.14009641, "ECCENTRICITY": 0.00896314, "INCLINATION": 99.0518, "RA_OF_ASC_NODE": 74.6512, "ARG_OF_PERICENTER": 59.7722, "MEAN_ANOMALY": 301.2287, "EPHEMERIS_TYPE": 0, "CLASSIFICATION_TYPE": "U", "NORAD_CAT_ID": 30989, "ELEMENT_SET_NO": 999, "REV_AT_EPOCH": 96188, "BSTAR": 0.0014821484, "MEAN_MOTION_DOT": 2.882e-05, "MEAN_MOTION_DDOT": 0}, "tle": {"line1": "1 30989U 99025BCF 25360.90422720  .00002882  00000+0  14821-2 0  9993", "line2": "2 30989  99.0518  74.6512 0089631  59.7722 301.2287 14.14009641961882"}}, "geometry": {"type": "Point", "coordinates": [-166.152539434975, -79.6912642739136]}}, {"type": "Feature", "properties": {"norad_id": 30993, "name": "FENGYUN 1C DEB", "group": "fengyun-1c-debris", "lat": -67.74420161779602, "lon": -108.24779759265465, "alt_km": 777.9852930212, "timestamp": "2025-12-27T07:26:25.501633+00:00", "meta": {"OBJECT_NAME": "FENGYUN 1C DEB", "OBJECT_ID": "1999-025BCK", "EPOCH": "2025-12-26T17:36:37.723680", "MEAN_MOTION": 14.35560149, "ECCENTRICITY": 0.00163104, "INCLINATION": 98.8452, "RA_OF_ASC_NODE": 93.527, "ARG_OF_PERICENTER": 329.2427, "MEAN_ANOMALY": 184.025, "EPHEMERIS_TYPE": 0, "CLASSIFICATION_TYPE": "U", "NORAD_CAT_ID": 30993, "ELEMENT_SET_NO": 999, "REV_AT_EPOCH": 97120, "BSTAR": 0.0018765621, "MEAN_MOTION_DOT": 5.37e-05, "MEAN_MOTION_DDOT": 0}, "tle": {"line1": "1 30993U 99025BCK 25360.73376995  .00005370  00000+0  18766-2 0  9998", "line2": "2 30993  98.8452  93.5270 0016310 329.2427 184.0250 14.35560149971205"}}, "geometry": {"type": "Point", "coordinates": [-108.24779759265465, -67.74420161779602]}}, {"type": "Feature", "properties": {"norad_id": 30994, "name": "FENGYUN 1C DEB", "group": "fengyun-1c-debris", "lat": 54.22413214451121, "lon": -158.41789498118158, "alt_km": 834.9346777950013, "timestamp": "2025-12-27T07:26:25.501643+00:00", "meta": {"OBJECT_NAME": "FENGYUN 1C DEB", "OBJECT_ID": "1999-025BCL", "EPOCH": "2025-12-26T12:08:30.018336", "MEAN_MOTION": 14.1177862, "ECCENTRICITY": 0.0018482, "INCLINATION": 98.6996, "RA_OF_ASC_NODE": 8.5345, "ARG_OF_PERICENTER": 136.4718, "MEAN_ANOMALY": 223.7916, "EPHEMERIS_TYPE": 0, "CLASSIFICATION_TYPE": "U", "NORAD_CAT_ID": 30994, "ELEMENT_SET_NO": 999, "REV_AT_EPOCH": 96779, "BSTAR": 0.00014544, "MEAN_MOTION_DOT": 2.23e-06, "MEAN_MOTION_DDOT": 0}, "tle": {"line1": "1 30994U 99025BCL 25360.50590299  .00000223  00000+0  14544-3 0  9992", "line2": "2 30994  98.6996   8.5345 0018482 136.4718 223.7916 14.11778620967797"}}, "geometry": {"type": "Point", "coordinates": [-158.41789498118158, 54.22413214451121]}}]}